OBJECT_NAME,OBJECT_ID,EPOCH,MEAN_MOTION,ECCENTRICITY,INCLINATION,RA_OF_ASC_NODE,ARG_OF_PERICENTER,MEAN_ANOMALY,EPHEMERIS_TYPE,CLASSIFICATION_TYPE,NORAD_CAT_ID,ELEMENT_SET_NO,REV_AT_EPOCH,BSTAR,MEAN_MOTION_DOT,MEAN_MOTION_DDOT
GAOFEN-11 01,2018-063A,2026-07-04T06:50:26.408832,15.55787946,.00021145,97.1275,252.1214,257.7519,102.3499,0,U,43585,999,44300,.25138259E-3,.17261E-3,0
ICESAT-2,2018-070A,2026-07-04T05:52:57.891072,15.28191722,.00060679,92.0091,295.5884,88.3056,271.8889,0,U,43613,999,43506,.47005708E-3,.12922E-3,0
HYSIS,2018-096A,2026-07-04T07:58:24.648672,14.78650960,.00018635,97.9831,251.9454,89.2914,270.8510,0,U,43719,999,40995,.12607182E-3,.872E-5,0
KAZSTSAT,2018-099AB,2026-07-04T01:01:24.628224,14.99928651,.00082064,97.4306,216.2085,21.4171,338.7395,0,U,43783,999,41383,.17363347E-3,.21E-4,0
SAUDISAT 5A,2018-102A,2026-07-04T07:42:15.175872,15.28231557,.00111674,97.3054,246.5728,77.3503,282.8985,0,U,43831,999,41829,.28196299E-3,.7698E-4,0
SAUDISAT 5B,2018-102C,2026-07-04T08:05:18.825216,15.28479322,.00119179,97.3163,249.6893,78.9150,281.3430,0,U,43833,999,41841,.26726518E-3,.7349E-4,0
GAOFEN-10R,2019-066A,2026-07-04T06:59:23.123040,14.83039000,.0007195,98.0504,138.9952,81.1018,279.1010,0,U,44622,999,36491,.17411111E-3,.1362E-4,0
CARTOSAT-3,2019-081A,2026-07-04T06:45:54.953856,15.19259456,.00135177,97.4291,246.8734,94.9376,265.3402,0,U,44804,999,36606,.1360604E-3,.2806E-4,0
GAOFEN-12 01,2019-082A,2026-07-04T07:32:57.696288,14.80473155,.00015544,97.8104,191.2420,54.0855,306.0501,0,U,44819,999,35662,.69874775E-4,.484E-5,0
CSG-1,2019-092A,2026-07-03T10:57:11.816928,14.82158959,.00014246,97.8892,7.8235,91.1235,269.0142,0,U,44873,999,35388,.74034059E-4,.537E-5,0
NEMO-HD,2020-061F,2026-07-04T07:05:57.139008,15.44950228,.00013568,97.1905,247.0789,74.3813,285.7586,0,U,46277,999,32462,.31038297E-3,.14531E-3,0
SENTINEL-6A,2020-086A,2026-07-04T00:40:15.915072,12.80929998,.00078396,66.0414,100.0752,270.0125,89.9992,0,U,46984,999,26248,.101576E-3,-.38E-6,0
CAS500-1,2021-022A,2026-07-04T07:25:03.986688,15.20172482,.00037409,97.3878,80.2142,213.9087,146.1909,0,U,47932,999,29336,.38839861E-3,.8344E-4,0
GAOFEN-12 02,2021-026A,2026-07-04T06:14:12.146784,14.80309721,.00050591,97.9927,183.3709,162.4263,197.7124,0,U,48079,999,28428,.64586133E-4,.439E-5,0
PLEIADES NEO 3,2021-034A,2026-07-04T08:07:57.899712,14.81671383,.00013472,97.8938,259.8588,90.3756,269.7612,0,U,48268,999,28019,-.57503089E-4,-.504E-5,0
PLEIADES NEO 4,2021-073E,2026-07-03T11:52:22.041120,14.81667489,.00013341,97.8935,259.0231,88.9745,271.1620,0,U,49070,999,26378,.76520154E-4,.55E-5,0
LANDSAT 9,2021-088A,2026-07-04T03:47:31.041888,14.57109297,.00011615,98.2274,255.1296,88.7566,271.3765,0,U,49260,999,25347,.10118002E-3,.41E-5,0
CSG-2,2022-008A,2026-07-04T07:12:22.745664,14.82155049,.00015722,97.8886,8.6491,84.9737,275.1655,0,U,51444,999,23912,-.12825056E-4,-.154E-5,0
GAOFEN-12 03,2022-069A,2026-07-04T07:01:34.131360,14.80059587,.00024359,97.8256,72.7303,83.7657,276.3833,0,U,52912,999,21714,.48549933E-4,.317E-5,0
SWOT,2022-173A,2026-07-04T05:00:33.972192,14.00171606,.00003209,77.6102,12.3303,83.0779,277.0410,0,U,54754,999,18153,.60529619E-4,.87E-6,0
GAOFEN-12 04,2023-123A,2026-07-04T07:26:45.931776,14.79759790,.00039094,97.9111,103.0750,72.2712,287.8926,0,U,57654,999,15516,.16184118E-3,.1166E-4,0
PARS 1,2024-039Q,2026-07-04T06:34:04.393344,15.46093783,.00109604,97.4835,166.7360,61.3474,298.8876,0,U,59065,999,13128,.29788946E-3,.14525E-3,0
RESURS-P 4,2024-061A,2026-07-04T07:24:39.188160,15.32230900,.000311,97.2759,132.9105,105.3825,254.7761,0,U,59371,999,12638,.11846017E-3,.361E-4,0
LEGION 1,2024-081A,2026-07-04T04:22:22.824768,15.16784699,.00080141,97.5010,262.8586,315.2129,44.8456,0,U,59625,999,12011,.22970719E-3,.4447E-4,0
LEGION 2,2024-081B,2026-07-03T22:45:54.402048,15.16761573,.00098506,97.5012,262.7246,278.1623,81.8493,0,U,59626,999,12008,.23821497E-3,.4613E-4,0
ALOS-4 (DAICHI-4),2024-123A,2026-07-02T20:23:03.331104,14.79475621,.00016106,97.9220,280.8007,97.4056,262.7339,0,U,60182,999,10819,.22752435E-3,.1648E-4,0
LEGION 3,2024-146A,2026-07-03T19:15:10.057536,15.15595732,.00088727,45.0024,301.4525,275.3117,84.6749,0,U,60452,999,10454,.27523481E-3,.5059E-4,0
LEGION 4,2024-146B,2026-07-04T06:22:23.167488,15.16173751,.00117418,45.0024,30.8638,43.9063,316.2747,0,U,60453,999,10346,.27815594E-3,.5205E-4,0
SENTINEL-2C,2024-157A,2026-07-04T03:58:22.816704,14.30813141,.00009169,98.5685,259.7072,94.2369,265.8919,0,U,60989,999,9541,.35173079E-4,.49E-6,0
IONOSFERA-M 1,2024-199A,2026-07-04T03:24:56.713248,14.22757527,.00022096,98.7150,58.1339,87.8913,272.2518,0,U,61735,999,13011,.50823734E-4,.7E-6,0
