GAOFEN-11 01            
1 43585U 18063A   26185.28502788  .00017261  00000+0  25138-3 0  9993
2 43585  97.1275 252.1214 0002114 257.7519 102.3499 15.55787946443005
ICESAT-2                
1 43613U 18070A   26185.24511448  .00012922  00000+0  47006-3 0  9999
2 43613  92.0091 295.5884 0006067  88.3056 271.8889 15.28191722435069
HYSIS                   
1 43719U 18096A   26185.33222973  .00000872  00000+0  12607-3 0  9996
2 43719  97.9831 251.9454 0001863  89.2914 270.8510 14.78650960409950
KAZSTSAT                
1 43783U 18099AB  26185.04264616  .00002100  00000+0  17363-3 0  9998
2 43783  97.4306 216.2085 0008206  21.4171 338.7395 14.99928651413833
SAUDISAT 5A             
1 43831U 18102A   26185.32100898  .00007698  00000+0  28196-3 0  9992
2 43831  97.3054 246.5728 0011167  77.3503 282.8985 15.28231557418299
SAUDISAT 5B             
1 43833U 18102C   26185.33702344  .00007349  00000+0  26727-3 0  9990
2 43833  97.3163 249.6893 0011917  78.9150 281.3430 15.28479322418414
GAOFEN-10R              
1 44622U 19066A   26185.29123985  .00001362  00000+0  17411-3 0  9999
2 44622  98.0504 138.9952 0007195  81.1018 279.1010 14.83039000364915
CARTOSAT-3              
1 44804U 19081A   26185.28188604  .00002806  00000+0  13606-3 0  9992
2 44804  97.4291 246.8734 0013517  94.9376 265.3402 15.19259456366063
GAOFEN-12 01            
1 44819U 19082A   26185.31455667  .00000484  00000+0  69875-4 0  9999
2 44819  97.8104 191.2420 0001554  54.0855 306.0501 14.80473155356623
CSG-1                   
1 44873U 19092A   26184.45638677  .00000537  00000+0  74034-4 0  9990
2 44873  97.8892   7.8235 0001424  91.1235 269.0142 14.82158959353881
NEMO-HD                 
1 46277U 20061F   26185.29580022  .00014531  00000+0  31038-3 0  9996
2 46277  97.1905 247.0789 0001356  74.3813 285.7586 15.44950228324625
SENTINEL-6A             
1 46984U 20086A   26185.02796198 -.00000038  00000+0  10158-3 0  9990
2 46984  66.0414 100.0752 0007839 270.0125  89.9992 12.80929998262488
CAS500-1                
1 47932U 21022A   26185.30907392  .00008344  00000+0  38840-3 0  9991
2 47932  97.3878  80.2142 0003740 213.9087 146.1909 15.20172482293365
GAOFEN-12 02            
1 48079U 21026A   26185.25986281  .00000439  00000+0  64586-4 0  9990
2 48079  97.9927 183.3709 0005059 162.4263 197.7124 14.80309721284287
PLEIADES NEO 3          
1 48268U 21034A   26185.33886458 -.00000504  00000+0 -57503-4 0  9999
2 48268  97.8938 259.8588 0001347  90.3756 269.7612 14.81671383280199
PLEIADES NEO 4          
1 49070U 21073E   26184.49469955  .00000550  00000+0  76520-4 0  9998
2 49070  97.8935 259.0231 0001334  88.9745 271.1620 14.81667489263786
LANDSAT 9               
1 49260U 21088A   26185.15799817  .00000410  00000+0  10118-3 0  9997
2 49260  98.2274 255.1296 0001161  88.7566 271.3765 14.57109297253471
CSG-2                   
1 51444U 22008A   26185.30026326 -.00000154  00000+0 -12825-4 0  9997
2 51444  97.8886   8.6491 0001572  84.9737 275.1655 14.82155049239124
GAOFEN-12 03            
1 52912U 22069A   26185.29275615  .00000317  00000+0  48550-4 0  9993
2 52912  97.8256  72.7303 0002435  83.7657 276.3833 14.80059587217144
SWOT                    
1 54754U 22173A   26185.20872653  .00000087  00000+0  60530-4 0  9997
2 54754  77.6102  12.3303 0000320  83.0779 277.0410 14.00171606181536
GAOFEN-12 04            
1 57654U 23123A   26185.31025384  .00001166  00000+0  16184-3 0  9992
2 57654  97.9111 103.0750 0003909  72.2712 287.8926 14.79759790155163
PARS 1                  
1 59065U 24039Q   26185.27366196  .00014525  00000+0  29789-3 0  9999
2 59065  97.4835 166.7360 0010960  61.3474 298.8876 15.46093783131282
RESURS-P 4              
1 59371U 24061A   26185.30878690  .00003610  00000+0  11846-3 0  9993
2 59371  97.2759 132.9105 0003110 105.3825 254.7761 15.32230900126383
LEGION 1                
1 59625U 24081A   26185.18220862  .00004447  00000+0  22971-3 0  9995
2 59625  97.5010 262.8586 0008014 315.2129  44.8456 15.16784699120116
LEGION 2                
1 59626U 24081B   26184.94854632  .00004613  00000+0  23821-3 0  9997
2 59626  97.5012 262.7246 0009850 278.1623  81.8493 15.16761573120080
ALOS-4 (DAICHI-4)       
1 60182U 24123A   26183.84934411  .00001648  00000+0  22752-3 0  9992
2 60182  97.9220 280.8007 0001610  97.4056 262.7339 14.79475621108199
LEGION 3                
1 60452U 24146A   26184.80219974  .00005059  00000+0  27523-3 0  9995
2 60452  45.0024 301.4525 0008872 275.3117  84.6749 15.15595732104540
LEGION 4                
1 60453U 24146B   26185.26554592  .00005205  00000+0  27816-3 0  9993
2 60453  45.0024  30.8638 0011741  43.9063 316.2747 15.16173751103463
SENTINEL-2C             
1 60989U 24157A   26185.16554186  .00000049  00000+0  35173-4 0  9994
2 60989  98.5685 259.7072 0000916  94.2369 265.8919 14.30813141 95411
IONOSFERA-M 1           
1 61735U 24199A   26185.14232307  .00000070  00000+0  50824-4 0  9990
2 61735  98.7150  58.1339 0002209  87.8913 272.2518 14.22757527130117
